{"fetched_at":"2026-07-12T05:53:19.172Z","source":"https://celestrak.org/NORAD/elements/gp.php?NAME=STRIX&FORMAT=JSON","constellation":"synspective","records":[{"OBJECT_NAME":"STRIX-1","OBJECT_ID":"2022-113A","EPOCH":"2026-07-11T20:53:00.972960","CLASSIFICATION_TYPE":"U","MEAN_MOTION":15.4090052,"ECCENTRICITY":0.0005385,"INCLINATION":97.4487,"RA_OF_ASC_NODE":255.3504,"ARG_OF_PERICENTER":140.6668,"MEAN_ANOMALY":219.497,"EPHEMERIS_TYPE":0,"NORAD_CAT_ID":53815,"ELEMENT_SET_NO":999,"REV_AT_EPOCH":21124,"BSTAR":0.00036767,"MEAN_MOTION_DOT":0.00015042,"MEAN_MOTION_DDOT":0},{"OBJECT_NAME":"STRIX-3","OBJECT_ID":"2024-047A","EPOCH":"2026-07-11T20:55:36.638112","CLASSIFICATION_TYPE":"U","MEAN_MOTION":15.19777636,"ECCENTRICITY":0.0012351,"INCLINATION":97.6627,"RA_OF_ASC_NODE":168.9191,"ARG_OF_PERICENTER":346.962,"MEAN_ANOMALY":13.1293,"EPHEMERIS_TYPE":0,"NORAD_CAT_ID":59224,"ELEMENT_SET_NO":999,"REV_AT_EPOCH":12849,"BSTAR":0.00025973,"MEAN_MOTION_DOT":0.00005497,"MEAN_MOTION_DDOT":0},{"OBJECT_NAME":"STRIX-4","OBJECT_ID":"2024-137A","EPOCH":"2026-07-11T21:57:01.479744","CLASSIFICATION_TYPE":"U","MEAN_MOTION":15.33242329,"ECCENTRICITY":0.001577,"INCLINATION":43.0144,"RA_OF_ASC_NODE":144.2491,"ARG_OF_PERICENTER":108.7906,"MEAN_ANOMALY":251.466,"EPHEMERIS_TYPE":0,"NORAD_CAT_ID":60352,"ELEMENT_SET_NO":999,"REV_AT_EPOCH":10781,"BSTAR":0.00029615,"MEAN_MOTION_DOT":0.0000948,"MEAN_MOTION_DDOT":0},{"OBJECT_NAME":"STRIX-2","OBJECT_ID":"2024-248A","EPOCH":"2026-07-11T20:56:42.336672","CLASSIFICATION_TYPE":"U","MEAN_MOTION":15.09172696,"ECCENTRICITY":0.0013524,"INCLINATION":97.6295,"RA_OF_ASC_NODE":148.375,"ARG_OF_PERICENTER":248.4941,"MEAN_ANOMALY":111.4846,"EPHEMERIS_TYPE":0,"NORAD_CAT_ID":62406,"ELEMENT_SET_NO":999,"REV_AT_EPOCH":8531,"BSTAR":0.00020566,"MEAN_MOTION_DOT":0.00003208,"MEAN_MOTION_DDOT":0},{"OBJECT_NAME":"STRIX-5","OBJECT_ID":"2025-229A","EPOCH":"2026-07-10T22:27:03.333600","CLASSIFICATION_TYPE":"U","MEAN_MOTION":15.04570886,"ECCENTRICITY":0.00374766,"INCLINATION":41.9266,"RA_OF_ASC_NODE":155.6924,"ARG_OF_PERICENTER":210.2665,"MEAN_ANOMALY":149.5996,"EPHEMERIS_TYPE":0,"NORAD_CAT_ID":65971,"ELEMENT_SET_NO":999,"REV_AT_EPOCH":4055,"BSTAR":0.00012910192,"MEAN_MOTION_DOT":0.00001672,"MEAN_MOTION_DDOT":0},{"OBJECT_NAME":"STRIX-6","OBJECT_ID":"2026-056A","EPOCH":"2026-07-11T02:33:14.445216","CLASSIFICATION_TYPE":"U","MEAN_MOTION":15.00317742,"ECCENTRICITY":0.00165783,"INCLINATION":50.2817,"RA_OF_ASC_NODE":236.7152,"ARG_OF_PERICENTER":335.5146,"MEAN_ANOMALY":24.5014,"EPHEMERIS_TYPE":0,"NORAD_CAT_ID":68291,"ELEMENT_SET_NO":999,"REV_AT_EPOCH":1686,"BSTAR":0.00012111851,"MEAN_MOTION_DOT":0.00001272,"MEAN_MOTION_DDOT":0},{"OBJECT_NAME":"STRIX-7","OBJECT_ID":"2026-112A","EPOCH":"2026-07-11T20:31:41.873664","CLASSIFICATION_TYPE":"U","MEAN_MOTION":15.01593866,"ECCENTRICITY":0.0024347,"INCLINATION":44.908,"RA_OF_ASC_NODE":62.8729,"ARG_OF_PERICENTER":189.4167,"MEAN_ANOMALY":170.6251,"EPHEMERIS_TYPE":0,"NORAD_CAT_ID":69177,"ELEMENT_SET_NO":999,"REV_AT_EPOCH":758,"BSTAR":0.00019299,"MEAN_MOTION_DOT":0.00002322,"MEAN_MOTION_DDOT":0},{"OBJECT_NAME":"STRIX-8","OBJECT_ID":"2026-146A","EPOCH":"2026-07-11T19:59:30.022368","CLASSIFICATION_TYPE":"U","MEAN_MOTION":15.04416838,"ECCENTRICITY":0.000767,"INCLINATION":41.9901,"RA_OF_ASC_NODE":31.7184,"ARG_OF_PERICENTER":359.842,"MEAN_ANOMALY":0.2403,"EPHEMERIS_TYPE":0,"NORAD_CAT_ID":69701,"ELEMENT_SET_NO":999,"REV_AT_EPOCH":227,"BSTAR":0.00020363,"MEAN_MOTION_DOT":0.00002704,"MEAN_MOTION_DDOT":0}]}
